ONEWEB-0283             
1 49001U 21060AL  25106.59040291  .00000017  00000+0  10118-4 0  9999
2 49001  87.9033 313.8333 0001709  79.4951 280.6372 13.16596704183486
ONEWEB-0284             
1 49002U 21060AM  25106.58407757  .00000008  00000+0 -12563-4 0  9990
2 49002  87.9027 313.8001 0001513  96.5524 263.5779 13.16595335183469
ONEWEB-0285             
1 49075U 21075A   25106.43713950  .00000522  00000+0  14154-2 0  9991
2 49075  87.8839  75.5690 0001859  85.2466 274.8874 13.12444096179232
ONEWEB-0286             
1 49076U 21075B   25106.40860511 -.00000280  00000+0 -81244-3 0  9993
2 49076  87.8863  75.5750 0002107  90.4267 269.7103 13.12442395178586
ONEWEB-0287             
1 49077U 21075C   25106.40539296  .00000075  00000+0  16063-3 0  9994
2 49077  87.9013  90.8546 0002154  98.4348 261.7028 13.17647810177422
ONEWEB-0288             
1 49078U 21075D   25106.47105067 -.00000275  00000+0 -80078-3 0  9998
2 49078  87.8837  75.5574 0001835  89.1364 270.9975 13.12443057179211
ONEWEB-0289             
1 49079U 21075E   25106.43407680  .00000028  00000+0  39116-4 0  9993
2 49079  87.9016  90.8794 0001448  92.5095 267.6202 13.17648608178001
ONEWEB-0290             
1 49080U 21075F   25106.49313563  .00000074  00000+0  15736-3 0  9999
2 49080  87.9015  90.8248 0001265  81.1189 279.0086 13.17647731177429
